[{"OBJECT_NAME":"SHIYAN-28B 02","OBJECT_ID":"2025-177A","EPOCH":"2026-03-09T22:20:04.170912","MEAN_MOTION":14.29345292,"ECCENTRICITY":0.00031847,"INCLINATION":10.9983,"RA_OF_ASC_NODE":220.6467,"ARG_OF_PERICENTER":128.0226,"MEAN_ANOMALY":232.029,"EPHEMERIS_TYPE":0,"CLASSIFICATION_TYPE":"U","NORAD_CAT_ID":65226,"ELEMENT_SET_NO":999,"REV_AT_EPOCH":2931,"BSTAR":0.00012341019,"MEAN_MOTION_DOT":7.51e-6,"MEAN_MOTION_DDOT":0},{"OBJECT_NAME":"NOAA 12 DEB","OBJECT_ID":"1991-032G","EPOCH":"2026-03-09T04:47:15.600768","MEAN_MOTION":14.30871297,"ECCENTRICITY":0.00036423,"INCLINATION":98.5167,"RA_OF_ASC_NODE":55.7806,"ARG_OF_PERICENTER":287.1553,"MEAN_ANOMALY":72.9231,"EPHEMERIS_TYPE":0,"CLASSIFICATION_TYPE":"U","NORAD_CAT_ID":38547,"ELEMENT_SET_NO":999,"REV_AT_EPOCH":74891,"BSTAR":0.00017563069,"MEAN_MOTION_DOT":4.18e-6,"MEAN_MOTION_DDOT":0}]
